{"type": "FeatureCollection", "features": [ {"type": "Feature", "properties": {"norad_id": 34375, "name": "IRIDIUM 33 DEB", "group": "iridium-33-debris", "lat": -38.12081993415819, "lon": 175.9676291408616, "alt_km": 890.4521340695273, "timestamp": "2025-12-22T11:33:20.824743+00:00", "meta": {"OBJECT_NAME": "IRIDIUM 33 DEB", "OBJECT_ID": "1997-051FT", "EPOCH": "2025-12-21T18:54:05.228064", "MEAN_MOTION": 14.18007741, "ECCENTRICITY": 0.0103707, "INCLINATION": 86.4322, "RA_OF_ASC_NODE": 179.0535, "ARG_OF_PERICENTER": 98.4333, "MEAN_ANOMALY": 284.1213, "EPHEMERIS_TYPE": 0, "CLASSIFICATION_TYPE": "U", "NORAD_CAT_ID": 34375, "ELEMENT_SET_NO": 999, "REV_AT_EPOCH": 86840, "BSTAR": 0.00033721, "MEAN_MOTION_DOT": 7.48e-06, "MEAN_MOTION_DDOT": 0}, "tle": {"line1": "1 34375U 97051FT  25355.78756051  .00000748  00000+0  33721-3 0  9990", "line2": "2 34375  86.4322 179.0535 0103707  98.4333 284.1213 14.18007741868407"}}, "geometry": {"type": "Point", "coordinates": [175.9676291408616, -38.12081993415819]}}, {"type": "Feature", "properties": {"norad_id": 34376, "name": "IRIDIUM 33 DEB", "group": "iridium-33-debris", "lat": 81.26941294538918, "lon": 157.2207886764929, "alt_km": 661.177398908053, "timestamp": "2025-12-22T11:33:20.824753+00:00", "meta": {"OBJECT_NAME": "IRIDIUM 33 DEB", "OBJECT_ID": "1997-051FU", "EPOCH": "2025-12-21T12:07:24.797568", "MEAN_MOTION": 14.62675501, "ECCENTRICITY": 0.00281411, "INCLINATION": 86.2976, "RA_OF_ASC_NODE": 2.5986, "ARG_OF_PERICENTER": 137.7647, "MEAN_ANOMALY": 222.5739, "EPHEMERIS_TYPE": 0, "CLASSIFICATION_TYPE": "U", "NORAD_CAT_ID": 34376, "ELEMENT_SET_NO": 999, "REV_AT_EPOCH": 88135, "BSTAR": 0.0010610953, "MEAN_MOTION_DOT": 5.451e-05, "MEAN_MOTION_DDOT": 0}, "tle": {"line1": "1 34376U 97051FU  25355.50514812  .00005451  00000+0  10611-2 0  9996", "line2": "2 34376  86.2976   2.5986 0028141 137.7647 222.5739 14.62675501881356"}}, "geometry": {"type": "Point", "coordinates": [157.2207886764929, 81.26941294538918]}}, {"type": "Feature", "properties": {"norad_id": 34486, "name": "IRIDIUM 33 DEB", "group": "iridium-33-debris", "lat": 43.20525221730208, "lon": 10.923865256916104, "alt_km": 567.8421637806159, "timestamp": "2025-12-22T11:33:20.824764+00:00", "meta": {"OBJECT_NAME": "IRIDIUM 33 DEB", "OBJECT_ID": "1997-051GB", "EPOCH": "2025-12-21T13:27:11.413728", "MEAN_MOTION": 14.96156216, "ECCENTRICITY": 0.0013923, "INCLINATION": 86.3924, "RA_OF_ASC_NODE": 7.952, "ARG_OF_PERICENTER": 87.2037, "MEAN_ANOMALY": 39.211, "EPHEMERIS_TYPE": 0, "CLASSIFICATION_TYPE": "U", "NORAD_CAT_ID": 34486, "ELEMENT_SET_NO": 999, "REV_AT_EPOCH": 89118, "BSTAR": 0.0016335, "MEAN_MOTION_DOT": 0.00018477, "MEAN_MOTION_DDOT": 0}, "tle": {"line1": "1 34486U 97051GB  25355.56054877  .00018477  00000+0  16335-2 0  9995", "line2": "2 34486  86.3924   7.9520 0013923  87.2037  39.2110 14.96156216891181"}}, "geometry": {"type": "Point", "coordinates": [10.923865256916104, 43.20525221730208]}}, {"type": "Feature", "properties": {"norad_id": 34487, "name": "IRIDIUM 33 DEB", "group": "iridium-33-debris", "lat": 9.77174795961494, "lon": 8.813856625271885, "alt_km": 748.6663227118825, "timestamp": "2025-12-22T11:33:20.824774+00:00", "meta": {"OBJECT_NAME": "IRIDIUM 33 DEB", "OBJECT_ID": "1997-051GC", "EPOCH": "2025-12-21T19:41:03.774912", "MEAN_MOTION": 14.4322687, "ECCENTRICITY": 0.0033228, "INCLINATION": 86.3429, "RA_OF_ASC_NODE": 8.4674, "ARG_OF_PERICENTER": 100.1253, "MEAN_ANOMALY": 76.4458, "EPHEMERIS_TYPE": 0, "CLASSIFICATION_TYPE": "U", "NORAD_CAT_ID": 34487, "ELEMENT_SET_NO": 999, "REV_AT_EPOCH": 88379, "BSTAR": 0.0001448, "MEAN_MOTION_DOT": 5.11e-06, "MEAN_MOTION_DDOT": 0}, "tle": {"line1": "1 34487U 97051GC  25355.82018258  .00000511  00000+0  14480-3 0  9998", "line2": "2 34487  86.3429   8.4674 0033228 100.1253  76.4458 14.43226870883795"}}, "geometry": {"type": "Point", "coordinates": [8.813856625271885, 9.77174795961494]}}, {"type": "Feature", "properties": {"norad_id": 34488, "name": "IRIDIUM 33 DEB", "group": "iridium-33-debris", "lat": 21.907478946302085, "lon": 119.49846409684945, "alt_km": 475.40666544160376, "timestamp": "2025-12-22T11:33:20.824785+00:00", "meta": {"OBJECT_NAME": "IRIDIUM 33 DEB", "OBJECT_ID": "1997-051GD", "EPOCH": "2025-12-20T21:13:54.490080", "MEAN_MOTION": 15.31302202, "ECCENTRICITY": 0.0010948, "INCLINATION": 86.3254, "RA_OF_ASC_NODE": 301.7725, "ARG_OF_PERICENTER": 38.0894, "MEAN_ANOMALY": 322.1127, "EPHEMERIS_TYPE": 0, "CLASSIFICATION_TYPE": "U", "NORAD_CAT_ID": 34488, "ELEMENT_SET_NO": 999, "REV_AT_EPOCH": 89364, "BSTAR": 0.0030791, "MEAN_MOTION_DOT": 0.00094223, "MEAN_MOTION_DDOT": 0}, "tle": {"line1": "1 34488U 97051GD  25354.88465845  .00094223  00000+0  30791-2 0  9997", "line2": "2 34488  86.3254 301.7725 0010948  38.0894 322.1127 15.31302202893643"}}, "geometry": {"type": "Point", "coordinates": [119.49846409684945, 21.907478946302085]}}, {"type": "Feature", "properties": {"norad_id": 34492, "name": "IRIDIUM 33 DEB", "group": "iridium-33-debris", "lat": -30.740937414906348, "lon": 152.79349393845254, "alt_km": 676.3750694671226, "timestamp": "2025-12-22T11:33:20.824796+00:00", "meta": {"OBJECT_NAME": "IRIDIUM 33 DEB", "OBJECT_ID": "1997-051GH", "EPOCH": "2025-12-21T16:53:32.785152", "MEAN_MOTION": 14.25874095, "ECCENTRICITY": 0.0188684, "INCLINATION": 86.4714, "RA_OF_ASC_NODE": 331.0047, "ARG_OF_PERICENTER": 209.0267, "MEAN_ANOMALY": 332.2714, "EPHEMERIS_TYPE": 0, "CLASSIFICATION_TYPE": "U", "NORAD_CAT_ID": 34492, "ELEMENT_SET_NO": 999, "REV_AT_EPOCH": 85186, "BSTAR": 0.002243, "MEAN_MOTION_DOT": 6.457e-05, "MEAN_MOTION_DDOT": 0}, "tle": {"line1": "1 34492U 97051GH  25355.70385168  .00006457  00000+0  22430-2 0  9996", "line2": "2 34492  86.4714 331.0047 0188684 209.0267 332.2714 14.25874095851868"}}, "geometry": {"type": "Point", "coordinates": [152.79349393845254, -30.740937414906348]}}, {"type": "Feature", "properties": {"norad_id": 34497, "name": "IRIDIUM 33 DEB", "group": "iridium-33-debris", "lat": 33.39037522798766, "lon": -134.21974023876746, "alt_km": 851.2028663912151, "timestamp": "2025-12-22T11:33:20.824806+00:00", "meta": {"OBJECT_NAME": "IRIDIUM 33 DEB", "OBJECT_ID": "1997-051GN", "EPOCH": "2025-12-21T03:02:18.965760", "MEAN_MOTION": 14.27475874, "ECCENTRICITY": 0.00780469, "INCLINATION": 86.2771, "RA_OF_ASC_NODE": 48.8187, "ARG_OF_PERICENTER": 312.1215, "MEAN_ANOMALY": 76.3389, "EPHEMERIS_TYPE": 0, "CLASSIFICATION_TYPE": "U", "NORAD_CAT_ID": 34497, "ELEMENT_SET_NO": 999, "REV_AT_EPOCH": 87003, "BSTAR": 0.00042941712, "MEAN_MOTION_DOT": 1.107e-05, "MEAN_MOTION_DDOT": 0}, "tle": {"line1": "1 34497U 97051GN  25355.12660840  .00001107  00000+0  42942-3 0  9998", "line2": "2 34497  86.2771  48.8187 0078046 312.1215  76.3389 14.27475874870039"}}, "geometry": {"type": "Point", "coordinates": [-134.21974023876746, 33.39037522798766]}}, {"type": "Feature", "properties": {"norad_id": 34508, "name": "IRIDIUM 33 DEB", "group": "iridium-33-debris", "lat": -30.33336075143045, "lon": 96.38551215403226, "alt_km": 816.6306046654008, "timestamp": "2025-12-22T11:33:20.824817+00:00", "meta": {"OBJECT_NAME": "IRIDIUM 33 DEB", "OBJECT_ID": "1997-051GZ", "EPOCH": "2025-12-21T00:38:21.315840", "MEAN_MOTION": 14.38484044, "ECCENTRICITY": 0.00666098, "INCLINATION": 86.371, "RA_OF_ASC_NODE": 99.1304, "ARG_OF_PERICENTER": 146.3518, "MEAN_ANOMALY": 214.1938, "EPHEMERIS_TYPE": 0, "CLASSIFICATION_TYPE": "U", "NORAD_CAT_ID": 34508, "ELEMENT_SET_NO": 999, "REV_AT_EPOCH": 87428, "BSTAR": 0.00080829336, "MEAN_MOTION_DOT": 2.552e-05, "MEAN_MOTION_DDOT": 0}, "tle": {"line1": "1 34508U 97051GZ  25355.02663560  .00002552  00000+0  80829-3 0  9993", "line2": "2 34508  86.3710  99.1304 0066609 146.3518 214.1938 14.38484044874285"}}, "geometry": {"type": "Point", "coordinates": [96.38551215403226, -30.33336075143045]}}, {"type": "Feature", "properties": {"norad_id": 34521, "name": "IRIDIUM 33 DEB", "group": "iridium-33-debris", "lat": -58.81731001456148, "lon": 20.251937556739882, "alt_km": 690.4201592703239, "timestamp": "2025-12-22T11:33:20.824828+00:00", "meta": {"OBJECT_NAME": "IRIDIUM 33 DEB", "OBJECT_ID": "1997-051HN", "EPOCH": "2025-12-22T01:58:44.099040", "MEAN_MOTION": 14.6343915, "ECCENTRICITY": 0.0002691, "INCLINATION": 86.3786, "RA_OF_ASC_NODE": 26.4343, "ARG_OF_PERICENTER": 176.1617, "MEAN_ANOMALY": 183.9616, "EPHEMERIS_TYPE": 0, "CLASSIFICATION_TYPE": "U", "NORAD_CAT_ID": 34521, "ELEMENT_SET_NO": 999, "REV_AT_EPOCH": 88609, "BSTAR": 0.00078903, "MEAN_MOTION_DOT": 4.104e-05, "MEAN_MOTION_DDOT": 0}, "tle": {"line1": "1 34521U 97051HN  25356.08245485  .00004104  00000+0  78903-3 0  9992", "line2": "2 34521  86.3786  26.4343 0002691 176.1617 183.9616 14.63439150886095"}}, "geometry": {"type": "Point", "coordinates": [20.251937556739882, -58.81731001456148]}}, {"type": "Feature", "properties": {"norad_id": 34525, "name": "IRIDIUM 33 DEB", "group": "iridium-33-debris", "lat": 57.14446800221879, "lon": -142.95263089349578, "alt_km": 740.520654742445, "timestamp": "2025-12-22T11:33:20.824838+00:00", "meta": {"OBJECT_NAME": "IRIDIUM 33 DEB", "OBJECT_ID": "1997-051HS", "EPOCH": "2025-12-22T02:55:46.288992", "MEAN_MOTION": 14.42926723, "ECCENTRICITY": 0.0006395, "INCLINATION": 86.3719, "RA_OF_ASC_NODE": 42.8388, "ARG_OF_PERICENTER": 73.6651, "MEAN_ANOMALY": 343.0258, "EPHEMERIS_TYPE": 0, "CLASSIFICATION_TYPE": "U", "NORAD_CAT_ID": 34525, "ELEMENT_SET_NO": 999, "REV_AT_EPOCH": 88223, "BSTAR": 0.00030724, "MEAN_MOTION_DOT": 1.047e-05, "MEAN_MOTION_DDOT": 0}, "tle": {"line1": "1 34525U 97051HS  25356.12206353  .00001047  00000+0  30724-3 0  9994", "line2": "2 34525  86.3719  42.8388 0006395  73.6651 343.0258 14.42926723882237"}}, "geometry": {"type": "Point", "coordinates": [-142.95263089349578, 57.14446800221879]}}]}